NORAD_CAT_ID,OBJECT_NAME,OBJECT_TYPE,EPOCH,MEAN_MOTION,ECCENTRICITY,INCLINATION,RA_OF_ASC_NODE,ARG_OF_PERICENTER,MEAN_ANOMALY,BSTAR,MEAN_MOTION_DOT,MEAN_MOTION_DDOT,TLE_LINE0,TLE_LINE1,TLE_LINE2,SEMIMAJOR_AXIS,PERIOD,APOGEE,PERIGEE,DECAYED
53800.0,STARLINK-4720,PAYLOAD,2023-02-23 03:38:17,15.08829465,0.0001267,53.218,209.4662,82.7327,277.3809,-5.5071e-05,-1.164e-05,0.0,0 STARLINK-4720,1 53800U 22111AD  23054.15159093 -.00001164  00000-0 -55071-4 0  9996,2 53800  53.2180 209.4662 0001267  82.7327 277.3809 15.08829465 25350,6917.913,95.438,540.654,538.901,0.0
53800.0,STARLINK-4720,PAYLOAD,2023-02-23 09:59:49,15.08841552,7.81e-05,53.2173,208.2747,86.4067,273.7014,-2.7976e-05,-7.33e-06,0.0,0 STARLINK-4720,1 53800U 22111AD  23054.41654257 -.00000733  00000-0 -27976-4 0  9991,2 53800  53.2173 208.2747 0000781  86.4067 273.7014 15.08841552 26209,6917.876,95.437,540.281,539.2,0.0
53800.0,STARLINK-4720,PAYLOAD,2023-02-23 16:21:20,15.08847696,0.0001043,53.2155,207.0867,59.1523,300.9572,0.00014372,2.001e-05,0.0,0 STARLINK-4720,1 53800U 22111AD  23054.68149128  .00002001  00000-0  14372-3 0  9999,2 53800  53.2155 207.0867 0001043  59.1523 300.9572 15.08847696 25436,6917.857,95.437,540.443,539.0,0.0
53800.0,STARLINK-4720,PAYLOAD,2023-02-24 09:50:36,15.08831664,0.0001325,53.2157,203.8152,85.7364,274.378,8.5703e-05,1.076e-05,0.0,0 STARLINK-4720,1 53800U 22111AD  23055.41014139  .00001076  00000-0  85703-4 0  9992,2 53800  53.2157 203.8152 0001325  85.7364 274.3780 15.08831664 26355,6917.906,95.438,540.687,538.854,0.0
53800.0,STARLINK-4720,PAYLOAD,2023-02-24 16:12:08,15.08836569,9.06e-05,53.2173,202.6253,79.0159,281.0935,0.00011836,1.596e-05,0.0,0 STARLINK-4720,1 53800U 22111AD  23055.67509757  .00001596  00000-0  11836-3 0  9997,2 53800  53.2173 202.6253 0000906  79.0159 281.0935 15.08836569 25584,6917.891,95.438,540.383,539.129,0.0
53800.0,STARLINK-4720,PAYLOAD,2023-02-25 09:41:23,15.08833846,9.76e-05,53.2172,199.3535,90.3529,269.7575,-8.1811e-05,-1.589e-05,0.0,0 STARLINK-4720,1 53800U 22111AD  23056.40374851 -.00001589  00000-0 -81811-4 0  9999,2 53800  53.2172 199.3535 0000976  90.3529 269.7575 15.08833846 25692,6917.899,95.438,540.439,539.089,0.0
53800.0,STARLINK-4720,PAYLOAD,2023-02-25 12:52:10,15.08835738,0.0001017,53.2167,198.7589,88.5424,271.5684,-7.9531e-05,-1.553e-05,0.0,0 STARLINK-4720,1 53800U 22111AD  23056.53622761 -.00001553  00000-0 -79531-4 0  9996,2 53800  53.2167 198.7589 0001017  88.5424 271.5684 15.08835738 26525,6917.893,95.438,540.462,539.055,0.0
53800.0,STARLINK-4720,PAYLOAD,2023-02-25 16:02:56,15.08838405,0.0001182,53.2163,198.166,82.3849,277.7278,-8.9524e-05,-1.712e-05,0.0,0 STARLINK-4720,1 53800U 22111AD  23056.66870666 -.00001712  00000-0 -89524-4 0  9999,2 53800  53.2163 198.1660 0001182  82.3849 277.7278 15.08838405 26544,6917.885,95.438,540.568,538.933,0.0
53800.0,STARLINK-4720,PAYLOAD,2023-02-26 09:32:09,15.0884281,0.0001002,53.2167,194.8943,75.4479,284.6624,9.3214e-05,1.196e-05,0.0,0 STARLINK-4720,1 53800U 22111AD  23057.39733498  .00001196  00000-0  93214-4 0  9996,2 53800  53.2167 194.8943 0001002  75.4479 284.6624 15.08842810 25847,6917.872,95.437,540.43,539.044,0.0
53800.0,STARLINK-4720,PAYLOAD,2023-02-26 14:18:18,15.08850124,0.0001132,53.2168,194.0029,76.0664,284.0454,0.0001314,1.805e-05,0.0,0 STARLINK-4720,1 53800U 22111AD  23057.59604811  .00001805  00000-0  13140-3 0  9990,2 53800  53.2168 194.0029 0001132  76.0664 284.0454 15.08850124 25877,6917.849,95.437,540.498,538.931,0.0
53800.0,STARLINK-4720,PAYLOAD,2023-02-27 01:26:00,15.08843453,0.000121,53.2164,191.919,69.1227,290.9894,8.4022e-05,1.05e-05,0.0,0 STARLINK-4720,1 53800U 22111AD  23058.05973135  .00001050  00000-0  84022-4 0  9990,2 53800  53.2164 191.9190 0001210  69.1227 290.9894 15.08843453 25942,6917.87,95.437,540.572,538.898,0.0
53800.0,STARLINK-4720,PAYLOAD,2023-02-27 09:22:57,15.08833408,0.0001158,53.218,190.4348,86.0894,274.0231,-5.5568e-05,-1.172e-05,0.0,0 STARLINK-4720,1 53800U 22111AD  23058.39094444 -.00001172  00000-0 -55568-4 0  9994,2 53800  53.2180 190.4348 0001158  86.0894 274.0231 15.08833408 25990,6917.901,95.438,540.567,538.964,0.0
53800.0,STARLINK-4720,PAYLOAD,2023-02-27 18:55:13,15.08859829,0.0001051,53.217,188.6504,95.7985,264.3127,0.000201,2.914e-05,0.0,0 STARLINK-4720,1 53800U 22111AD  23058.78835629  .00002914  00000-0  20100-3 0  9991,2 53800  53.2170 188.6504 0001051  95.7985 264.3127 15.08859829 26051,6917.82,95.436,540.412,538.958,0.0
53800.0,STARLINK-4720,PAYLOAD,2023-02-28 07:38:22,15.08823657,0.0001174,53.2179,186.2718,104.868,255.2442,-0.00032186,-5.404e-05,0.0,0 STARLINK-4720,1 53800U 22111AD  23059.31832079 -.00005404  00000-0 -32186-3 0  9993,2 53800  53.2179 186.2718 0001174 104.8680 255.2442 15.08823657 26139,6917.93,95.439,540.608,538.983,0.0
53800.0,STARLINK-4720,PAYLOAD,2023-02-28 13:59:55,15.0882945,0.0001407,53.219,185.0826,113.4804,246.6336,-0.00025528,-4.347e-05,0.0,0 STARLINK-4720,1 53800U 22111AD  23059.58327683 -.00004347  00000-0 -25528-3 0  9999,2 53800  53.2190 185.0826 0001407 113.4804 246.6336 15.08829450 26988,6917.913,95.438,540.751,538.804,0.0
53800.0,STARLINK-4720,PAYLOAD,2023-03-01 13:50:42,15.0882349,0.000104,53.2182,180.6226,99.3308,260.7802,-6.5865e-05,-1.335e-05,0.0,0 STARLINK-4720,1 53800U 22111AD  23060.57688490 -.00001335  00000-0 -65865-4 0  9999,2 53800  53.2182 180.6226 0001040  99.3308 260.7802 15.08823490 27139,6917.931,95.439,540.515,539.076,0.0
53800.0,STARLINK-4720,PAYLOAD,2023-03-02 16:52:14,15.08842937,0.0001747,53.2203,175.5684,113.7547,246.3629,0.00027061,4.022e-05,0.0,0 STARLINK-4720,1 53800U 22111AD  23061.70294469  .00004022  00000-0  27061-3 0  9993,2 53800  53.2203 175.5684 0001747 113.7547 246.3629 15.08842937 27307,6917.871,95.437,540.945,538.528,0.0
53800.0,STARLINK-4720,PAYLOAD,2023-03-03 07:10:43,15.08831359,0.000119,53.2175,172.8908,98.069,262.0437,0.00011773,1.586e-05,0.0,0 STARLINK-4720,1 53800U 22111AD  23062.29911787  .00001586  00000-0  11773-3 0  9992,2 53800  53.2175 172.8908 0001190  98.0690 262.0437 15.08831359 26587,6917.907,95.438,540.595,538.949,0.0
53800.0,STARLINK-4720,PAYLOAD,2023-03-03 16:43:01,15.08849981,0.0001306,53.2168,171.1047,97.7576,262.3565,0.00014724,2.057e-05,0.0,0 STARLINK-4720,1 53800U 22111AD  23062.69654578  .00002057  00000-0  14724-3 0  9991,2 53800  53.2168 171.1047 0001306  97.7576 262.3565 15.08849981 26645,6917.85,95.437,540.618,538.811,0.0
53800.0,STARLINK-4720,PAYLOAD,2023-03-04 07:01:30,15.0885195,0.0001355,53.2179,168.4281,94.8925,265.2222,-0.00016523,-2.917e-05,0.0,0 STARLINK-4720,1 53800U 22111AD  23063.29271219 -.00002917  00000-0 -16523-3 0  9991,2 53800  53.2179 168.4281 0001355  94.8925 265.2222 15.08851950 26737,6917.844,95.437,540.646,538.771,0.0
53800.0,STARLINK-4720,PAYLOAD,2023-03-04 11:47:39,15.08852618,0.0001376,53.22,167.5379,90.4673,269.6476,-0.00010523,-1.963e-05,0.0,0 STARLINK-4720,1 53800U 22111AD  23063.49142800 -.00001963  00000-0 -10523-3 0  9990,2 53800  53.2200 167.5379 0001376  90.4673 269.6476 15.08852618 27579,6917.842,95.437,540.659,538.755,0.0
53800.0,STARLINK-4720,PAYLOAD,2023-03-04 16:33:47,15.08868035,0.0001249,53.218,166.643,102.5802,257.5329,-2.6246e-05,-7.06e-06,0.0,0 STARLINK-4720,1 53800U 22111AD  23063.69013152 -.00000706  00000-0 -26246-4 0  9993,2 53800  53.2180 166.6430 0001249 102.5802 257.5329 15.08868035 26798,6917.795,95.436,540.524,538.796,0.0
53800.0,STARLINK-4720,PAYLOAD,2023-03-05 06:52:17,15.08839504,0.0001522,53.2172,163.9668,99.3131,260.8034,-0.00015778,-2.798e-05,0.0,0 STARLINK-4720,1 53800U 22111AD  23064.28631505 -.00002798  00000-0 -15778-3 0  9997,2 53800  53.2172 163.9668 0001522  99.3131 260.8034 15.08839504 26883,6917.882,95.438,540.8,538.694,0.0
53800.0,STARLINK-4720,PAYLOAD,2023-03-06 06:43:04,15.0883804,0.000166,53.2156,159.5065,101.0702,259.0477,1.5413e-05,-4.3e-07,0.0,0 STARLINK-4720,1 53800U 22111AD  23065.27990810 -.00000043  00000-0  15413-4 0  9991,2 53800  53.2156 159.5065 0001660 101.0702 259.0477 15.08838040 27038,6917.886,95.438,540.9,538.603,0.0
53800.0,STARLINK-4720,PAYLOAD,2023-03-06 11:29:12,15.08844448,0.0001511,53.2176,158.6172,101.603,258.5132,0.0001072,1.419e-05,0.0,0 STARLINK-4720,1 53800U 22111AD  23065.47862151  .00001419  00000-0  10720-3 0  9991,2 53800  53.2176 158.6172 0001511 101.6030 258.5132 15.08844448 27068,6917.867,95.437,540.777,538.687,0.0
53800.0,STARLINK-4720,PAYLOAD,2023-03-06 16:15:20,15.08866913,0.0001397,53.218,157.7244,95.143,264.9721,0.00011638,1.566e-05,0.0,0 STARLINK-4720,1 53800U 22111AD  23065.67732487  .00001566  00000-0  11638-3 0  9993,2 53800  53.2180 157.7244 0001397  95.1430 264.9721 15.08866913 27095,6917.798,95.436,540.63,538.697,0.0
53800.0,STARLINK-4720,PAYLOAD,2023-03-07 06:33:52,15.08823585,0.0001191,53.2179,155.0508,105.2684,254.844,-0.00010559,-1.967e-05,0.0,0 STARLINK-4720,1 53800U 22111AD  23066.27351977 -.00001967  00000-0 -10559-3 0  9999,2 53800  53.2179 155.0508 0001191 105.2684 254.8440 15.08823585 27187,6917.931,95.439,540.619,538.972,0.0
53800.0,STARLINK-4720,PAYLOAD,2023-03-07 09:44:37,15.08832841,0.0001423,53.2181,154.4543,117.8377,242.276,-2.801e-05,-7.34e-06,0.0,0 STARLINK-4720,1 53800U 22111AD  23066.40599180 -.00000734  00000-0 -28010-4 0  9997,2 53800  53.2181 154.4543 0001423 117.8377 242.2760 15.08832841 27202,6917.902,95.438,540.752,538.783,0.0
53800.0,STARLINK-4720,PAYLOAD,2023-03-07 16:06:09,15.08843462,0.0001247,53.2171,153.2642,122.1838,237.9275,5.3973e-05,5.71e-06,0.0,0 STARLINK-4720,1 53800U 22111AD  23066.67094164  .00000571  00000-0  53973-4 0  9991,2 53800  53.2171 153.2642 0001247 122.1838 237.9275 15.08843462 27240,6917.87,95.437,540.597,538.872,0.0
53800.0,STARLINK-4720,PAYLOAD,2023-03-07 22:27:43,15.08836565,0.000156,53.2167,152.0724,102.2924,257.8242,-0.00019061,-3.32e-05,0.0,0 STARLINK-4720,1 53800U 22111AD  23066.93592066 -.00003320  00000-0 -19061-3 0  9990,2 53800  53.2167 152.0724 0001560 102.2924 257.8242 15.08836565 28091,6917.891,95.438,540.835,538.677,0.0
